[{"OBJECT_NAME":"STARLINK-37218","OBJECT_ID":"2026-063Z","EPOCH":"2026-04-04T20:00:01.999008","MEAN_MOTION":15.93137502,"ECCENTRICITY":0.000132,"INCLINATION":97.2803,"RA_OF_ASC_NODE":235.8206,"ARG_OF_PERICENTER":72.1572,"MEAN_ANOMALY":217.5484,"EPHEMERIS_TYPE":0,"CLASSIFICATION_TYPE":"U","NORAD_CAT_ID":68403,"ELEMENT_SET_NO":999,"REV_AT_EPOCH":266,"BSTAR":-0.0062359,"MEAN_MOTION_DOT":-0.02154086,"MEAN_MOTION_DDOT":0.0012697},{"OBJECT_NAME":"STARLINK-37188","OBJECT_ID":"2026-063AA","EPOCH":"2026-04-04T20:00:01.999008","MEAN_MOTION":15.93026492,"ECCENTRICITY":0.0001355,"INCLINATION":97.28,"RA_OF_ASC_NODE":235.8186,"ARG_OF_PERICENTER":75.9299,"MEAN_ANOMALY":210.4383,"EPHEMERIS_TYPE":0,"CLASSIFICATION_TYPE":"U","NORAD_CAT_ID":68404,"ELEMENT_SET_NO":999,"REV_AT_EPOCH":266,"BSTAR":-0.0062678,"MEAN_MOTION_DOT":-0.02152689,"MEAN_MOTION_DDOT":0.0012667},{"OBJECT_NAME":"SHIYAN-33","OBJECT_ID":"2026-064A","EPOCH":"2026-04-04T15:02:39.383808","MEAN_MOTION":15.23234289,"ECCENTRICITY":0.00137364,"INCLINATION":97.4652,"RA_OF_ASC_NODE":170.532,"ARG_OF_PERICENTER":198.939,"MEAN_ANOMALY":161.1338,"EPHEMERIS_TYPE":0,"CLASSIFICATION_TYPE":"U","NORAD_CAT_ID":68405,"ELEMENT_SET_NO":999,"REV_AT_EPOCH":129,"BSTAR":0.0003856419,"MEAN_MOTION_DOT":9.086e-5,"MEAN_MOTION_DDOT":0},{"OBJECT_NAME":"LPNTSAT-001 (IOD-1)","OBJECT_ID":"2026-065A","EPOCH":"2026-04-01T04:04:57.158400","MEAN_MOTION":15.18233471,"ECCENTRICITY":0.0015408,"INCLINATION":97.4137,"RA_OF_ASC_NODE":333.2788,"ARG_OF_PERICENTER":273.4606,"MEAN_ANOMALY":86.4866,"EPHEMERIS_TYPE":0,"CLASSIFICATION_TYPE":"U","NORAD_CAT_ID":68408,"ELEMENT_SET_NO":999,"REV_AT_EPOCH":57,"BSTAR":0.00023469,"MEAN_MOTION_DOT":4.75e-5,"MEAN_MOTION_DDOT":0},{"OBJECT_NAME":"LPNTSAT-002 (IOD-2)","OBJECT_ID":"2026-065B","EPOCH":"2026-04-02T10:08:21.772608","MEAN_MOTION":15.18229138,"ECCENTRICITY":0.00127389,"INCLINATION":97.4055,"RA_OF_ASC_NODE":334.508,"ARG_OF_PERICENTER":262.3917,"MEAN_ANOMALY":97.5871,"EPHEMERIS_TYPE":0,"CLASSIFICATION_TYPE":"U","NORAD_CAT_ID":68409,"ELEMENT_SET_NO":999,"REV_AT_EPOCH":74,"BSTAR":9.6695715e-5,"MEAN_MOTION_DOT":1.915e-5,"MEAN_MOTION_DDOT":0},{"OBJECT_NAME":"ELECTRON R/B","OBJECT_ID":"2026-065C","EPOCH":"2026-04-03T08:51:35.032608","MEAN_MOTION":16.33068968,"ECCENTRICITY":0.00698542,"INCLINATION":97.3609,"RA_OF_ASC_NODE":336.1707,"ARG_OF_PERICENTER":198.0172,"MEAN_ANOMALY":161.8648,"EPHEMERIS_TYPE":0,"CLASSIFICATION_TYPE":"U","NORAD_CAT_ID":68410,"ELEMENT_SET_NO":999,"REV_AT_EPOCH":88,"BSTAR":0.0004842293,"MEAN_MOTION_DOT":0.13281109,"MEAN_MOTION_DDOT":1.659494e-6},{"OBJECT_NAME":"ELECTRON KICK STAGE R/B","OBJECT_ID":"2026-065D","EPOCH":"2026-04-03T10:37:35.976864","MEAN_MOTION":15.83817593,"ECCENTRICITY":0.01760393,"INCLINATION":97.416,"RA_OF_ASC_NODE":336.0543,"ARG_OF_PERICENTER":10.7329,"MEAN_ANOMALY":349.7619,"EPHEMERIS_TYPE":0,"CLASSIFICATION_TYPE":"U","NORAD_CAT_ID":68411,"ELEMENT_SET_NO":999,"REV_AT_EPOCH":96,"BSTAR":0.00034496954,"MEAN_MOTION_DOT":0.00267226,"MEAN_MOTION_DDOT":2.237865e-6},{"OBJECT_NAME":"XINZHENGCHENG-01","OBJECT_ID":"2026-066A","EPOCH":"2026-04-02T23:56:28.789152","MEAN_MOTION":14.88095472,"ECCENTRICITY":0.00234411,"INCLINATION":84.8508,"RA_OF_ASC_NODE":275.7933,"ARG_OF_PERICENTER":189.3714,"MEAN_ANOMALY":170.7075,"EPHEMERIS_TYPE":0,"CLASSIFICATION_TYPE":"U","NORAD_CAT_ID":68412,"ELEMENT_SET_NO":999,"REV_AT_EPOCH":54,"BSTAR":0.00013573271,"MEAN_MOTION_DOT":1.283e-5,"MEAN_MOTION_DDOT":0},{"OBJECT_NAME":"LIJIAN-2 R/B","OBJECT_ID":"2026-066B","EPOCH":"2026-04-03T17:49:54.950304","MEAN_MOTION":15.22567818,"ECCENTRICITY":0.0525665,"INCLINATION":84.7058,"RA_OF_ASC_NODE":274.9472,"ARG_OF_PERICENTER":196.4876,"MEAN_ANOMALY":161.8704,"EPHEMERIS_TYPE":0,"CLASSIFICATION_TYPE":"U","NORAD_CAT_ID":68413,"ELEMENT_SET_NO":999,"REV_AT_EPOCH":65,"BSTAR":0.00032953,"MEAN_MOTION_DOT":0.0332571,"MEAN_MOTION_DDOT":-1.3682e-6},{"OBJECT_NAME":"2026-066C","OBJECT_ID":"2026-066C","EPOCH":"2026-04-03T19:18:33.177024","MEAN_MOTION":14.90103412,"ECCENTRICITY":0.00655474,"INCLINATION":85.1331,"RA_OF_ASC_NODE":274.8711,"ARG_OF_PERICENTER":46.055,"MEAN_ANOMALY":314.6055,"EPHEMERIS_TYPE":0,"CLASSIFICATION_TYPE":"U","NORAD_CAT_ID":68414,"ELEMENT_SET_NO":999,"REV_AT_EPOCH":66,"BSTAR":0.00022927198,"MEAN_MOTION_DOT":2.339e-5,"MEAN_MOTION_DDOT":0},{"OBJECT_NAME":"SL-4 R/B","OBJECT_ID":"2026-061S","EPOCH":"2026-04-04T19:15:19.016352","MEAN_MOTION":15.92401523,"ECCENTRICITY":0.0024398,"INCLINATION":82.3041,"RA_OF_ASC_NODE":95.0033,"ARG_OF_PERICENTER":25.2713,"MEAN_ANOMALY":334.9748,"EPHEMERIS_TYPE":0,"CLASSIFICATION_TYPE":"U","NORAD_CAT_ID":68537,"ELEMENT_SET_NO":999,"REV_AT_EPOCH":192,"BSTAR":0.00060157,"MEAN_MOTION_DOT":0.00208179,"MEAN_MOTION_DDOT":1.4752e-5},{"OBJECT_NAME":"TACHELES","OBJECT_ID":"2026-069B","EPOCH":"2026-04-02T13:12:59.999616","MEAN_MOTION":1.02407762,"ECCENTRICITY":0.8430033,"INCLINATION":28.3448,"RA_OF_ASC_NODE":359.8421,"ARG_OF_PERICENTER":77.7942,"MEAN_ANOMALY":194.3023,"EPHEMERIS_TYPE":0,"CLASSIFICATION_TYPE":"U","NORAD_CAT_ID":68539,"ELEMENT_SET_NO":999,"REV_AT_EPOCH":0,"BSTAR":-0.0071298,"MEAN_MOTION_DOT":-0.00190496,"MEAN_MOTION_DDOT":1.1727e-6},{"OBJECT_NAME":"SWC-1","OBJECT_ID":"2026-069C","EPOCH":"2026-04-02T12:20:34.000224","MEAN_MOTION":1.01595625,"ECCENTRICITY":0.8375109,"INCLINATION":28.3462,"RA_OF_ASC_NODE":359.8168,"ARG_OF_PERICENTER":77.163,"MEAN_ANOMALY":217.7352,"EPHEMERIS_TYPE":0,"CLASSIFICATION_TYPE":"U","NORAD_CAT_ID":68540,"ELEMENT_SET_NO":999,"REV_AT_EPOCH":0,"BSTAR":-1.7117,"MEAN_MOTION_DOT":-0.00154659,"MEAN_MOTION_DDOT":0},{"OBJECT_NAME":"K-RADCUBE","OBJECT_ID":"2026-069D","EPOCH":"2026-04-02T16:16:32.999808","MEAN_MOTION":1.02517944,"ECCENTRICITY":0.8450105,"INCLINATION":28.3341,"RA_OF_ASC_NODE":359.8703,"ARG_OF_PERICENTER":77.6642,"MEAN_ANOMALY":243.1767,"EPHEMERIS_TYPE":0,"CLASSIFICATION_TYPE":"U","NORAD_CAT_ID":68541,"ELEMENT_SET_NO":999,"REV_AT_EPOCH":3,"BSTAR":-1.7218e-5,"MEAN_MOTION_DOT":-0.00078411,"MEAN_MOTION_DDOT":1.9505e-6},{"OBJECT_NAME":"2026-071A","OBJECT_ID":"2026-071A","EPOCH":"2026-04-03T07:41:47.992704","MEAN_MOTION":1.98618778,"ECCENTRICITY":0.7241466,"INCLINATION":62.7917,"RA_OF_ASC_NODE":238.8364,"ARG_OF_PERICENTER":284.9481,"MEAN_ANOMALY":10.7459,"EPHEMERIS_TYPE":0,"CLASSIFICATION_TYPE":"U","NORAD_CAT_ID":68571,"ELEMENT_SET_NO":999,"REV_AT_EPOCH":1,"BSTAR":0.0016587,"MEAN_MOTION_DOT":-1.265e-5,"MEAN_MOTION_DDOT":0},{"OBJECT_NAME":"2026-071B","OBJECT_ID":"2026-071B","EPOCH":"2026-04-03T07:42:42.175872","MEAN_MOTION":2.01041412,"ECCENTRICITY":0.73138199,"INCLINATION":63.0589,"RA_OF_ASC_NODE":237.9448,"ARG_OF_PERICENTER":284.9724,"MEAN_ANOMALY":10.3188,"EPHEMERIS_TYPE":0,"CLASSIFICATION_TYPE":"U","NORAD_CAT_ID":68572,"ELEMENT_SET_NO":999,"REV_AT_EPOCH":1,"BSTAR":0.00035051942,"MEAN_MOTION_DOT":-1.541e-5,"MEAN_MOTION_DDOT":0}]
